STARLINK-30705
1 57945U 23148L   25358.20251285 -.00000273  00000+0  29258-5 0  9999
2 57945  53.1610  15.0072 0001249  80.3170 279.7972 15.30198269126868